{
  "type": "FeatureCollection",
  "features": [
    {
      "type": "Feature",
      "properties": {
        "norad_id": 37867,
        "name": "COSMOS 2476 (744)",
        "group": "glo-ops",
        "lat": -7.356997602434377,
        "lon": 75.8192921951318,
        "alt_km": 19160.31066520569,
        "timestamp": "2025-12-10T18:57:00.326347+00:00",
        "meta_object_name": "COSMOS 2476 (744)",
        "meta_object_id": "2011-064A",
        "meta_epoch": "2025-12-09T20:41:15.013248",
        "meta_mean_motion": 2.1310124,
        "meta_eccentricity": 0.00239101,
        "meta_inclination": 65.1608,
        "meta_ra_of_asc_node": 79.2687,
        "meta_arg_of_pericenter": 233.6391,
        "meta_mean_anomaly": 126.4016,
        "meta_ephemeris_type": 0,
        "meta_classification_type": "U",
        "meta_norad_cat_id": 37867,
        "meta_element_set_no": 999,
        "meta_rev_at_epoch": 10973,
        "meta_bstar": 0,
        "meta_mean_motion_dot": -1.7e-07,
        "meta_mean_motion_ddot": 0,
        "tle_line1": "1 37867U 11064A   25343.86197932 -.00000017  00000+0  00000+0 0  9992",
        "tle_line2": "2 37867  65.1608  79.2687 0023910 233.6391 126.4016  2.13101240109734"
      },
      "geometry": {
        "type": "Point",
        "coordinates": [
          75.8192921951318,
          -7.356997602434377
        ]
      }
    },
    {
      "type": "Feature",
      "properties": {
        "norad_id": 37868,
        "name": "COSMOS 2477 (745)",
        "group": "glo-ops",
        "lat": 6.878298314282247,
        "lon": -103.87667253128225,
        "alt_km": 19103.928591364347,
        "timestamp": "2025-12-10T18:57:00.326359+00:00",
        "meta_object_name": "COSMOS 2477 (745)",
        "meta_object_id": "2011-064B",
        "meta_epoch": "2025-12-09T06:11:12.657696",
        "meta_mean_motion": 2.13102656,
        "meta_eccentricity": 0.0021072,
        "meta_inclination": 65.167,
        "meta_ra_of_asc_node": 79.367,
        "meta_arg_of_pericenter": 234.1716,
        "meta_mean_anomaly": 203.2692,
        "meta_ephemeris_type": 0,
        "meta_classification_type": "U",
        "meta_norad_cat_id": 37868,
        "meta_element_set_no": 999,
        "meta_rev_at_epoch": 10971,
        "meta_bstar": 0,
        "meta_mean_motion_dot": -1.4e-07,
        "meta_mean_motion_ddot": 0,
        "tle_line1": "1 37868U 11064B   25343.25778539 -.00000014  00000+0  00000+0 0  9991",
        "tle_line2": "2 37868  65.1670  79.3670 0021072 234.1716 203.2692  2.13102656109715"
      },
      "geometry": {
        "type": "Point",
        "coordinates": [
          -103.87667253128225,
          6.878298314282247
        ]
      }
    },
    {
      "type": "Feature",
      "properties": {
        "norad_id": 37869,
        "name": "COSMOS 2475 (743)",
        "group": "glo-ops",
        "lat": 45.41490088252498,
        "lon": -128.62577184599257,
        "alt_km": 19157.772110887778,
        "timestamp": "2025-12-10T18:57:00.326370+00:00",
        "meta_object_name": "COSMOS 2475 (743)",
        "meta_object_id": "2011-064C",
        "meta_epoch": "2025-12-09T06:02:05.700768",
        "meta_mean_motion": 2.13101306,
        "meta_eccentricity": 0.0026081,
        "meta_inclination": 65.1742,
        "meta_ra_of_asc_node": 79.3871,
        "meta_arg_of_pericenter": 248.2695,
        "meta_mean_anomaly": 140.2782,
        "meta_ephemeris_type": 0,
        "meta_classification_type": "U",
        "meta_norad_cat_id": 37869,
        "meta_element_set_no": 999,
        "meta_rev_at_epoch": 10972,
        "meta_bstar": 0,
        "meta_mean_motion_dot": -1.3e-07,
        "meta_mean_motion_ddot": 0,
        "tle_line1": "1 37869U 11064C   25343.25145487 -.00000013  00000+0  00000+0 0  9991",
        "tle_line2": "2 37869  65.1742  79.3871 0026081 248.2695 140.2782  2.13101306109728"
      },
      "geometry": {
        "type": "Point",
        "coordinates": [
          -128.62577184599257,
          45.41490088252498
        ]
      }
    },
    {
      "type": "Feature",
      "properties": {
        "norad_id": 39155,
        "name": "COSMOS 2485 (747)",
        "group": "glo-ops",
        "lat": 35.75461213211966,
        "lon": 99.24975268800719,
        "alt_km": 19187.610397919067,
        "timestamp": "2025-12-10T18:57:00.326382+00:00",
        "meta_object_name": "COSMOS 2485 (747)",
        "meta_object_id": "2013-019A",
        "meta_epoch": "2025-12-09T07:54:23.495904",
        "meta_mean_motion": 2.1310286,
        "meta_eccentricity": 0.00245626,
        "meta_inclination": 65.3117,
        "meta_ra_of_asc_node": 79.982,
        "meta_arg_of_pericenter": 229.1601,
        "meta_mean_anomaly": 130.6433,
        "meta_ephemeris_type": 0,
        "meta_classification_type": "U",
        "meta_norad_cat_id": 39155,
        "meta_element_set_no": 999,
        "meta_rev_at_epoch": 9823,
        "meta_bstar": 0,
        "meta_mean_motion_dot": -1.3e-07,
        "meta_mean_motion_ddot": 0,
        "tle_line1": "1 39155U 13019A   25343.32943861 -.00000013  00000+0  00000+0 0  9993",
        "tle_line2": "2 39155  65.3117  79.9820 0024562 229.1601 130.6433  2.13102860 98238"
      },
      "geometry": {
        "type": "Point",
        "coordinates": [
          99.24975268800719,
          35.75461213211966
        ]
      }
    },
    {
      "type": "Feature",
      "properties": {
        "norad_id": 39620,
        "name": "COSMOS 2492 (754)",
        "group": "glo-ops",
        "lat": 59.83867522211967,
        "lon": 12.31152222441747,
        "alt_km": 19141.826384383865,
        "timestamp": "2025-12-10T18:57:00.326392+00:00",
        "meta_object_name": "COSMOS 2492 (754)",
        "meta_object_id": "2014-012A",
        "meta_epoch": "2025-12-10T05:26:14.562816",
        "meta_mean_motion": 2.13102977,
        "meta_eccentricity": 0.0014209,
        "meta_inclination": 65.4091,
        "meta_ra_of_asc_node": 320.3564,
        "meta_arg_of_pericenter": 311.2257,
        "meta_mean_anomaly": 48.6498,
        "meta_ephemeris_type": 0,
        "meta_classification_type": "U",
        "meta_norad_cat_id": 39620,
        "meta_element_set_no": 999,
        "meta_rev_at_epoch": 9121,
        "meta_bstar": 0,
        "meta_mean_motion_dot": -5e-07,
        "meta_mean_motion_ddot": 0,
        "tle_line1": "1 39620U 14012A   25344.22655744 -.00000050  00000+0  00000+0 0  9995",
        "tle_line2": "2 39620  65.4091 320.3564 0014209 311.2257  48.6498  2.13102977 91211"
      },
      "geometry": {
        "type": "Point",
        "coordinates": [
          12.31152222441747,
          59.83867522211967
        ]
      }
    },
    {
      "type": "Feature",
      "properties": {
        "norad_id": 40001,
        "name": "COSMOS 2500 (755)",
        "group": "glo-ops",
        "lat": -52.01370545459712,
        "lon": -75.928236309515,
        "alt_km": 19132.07736222654,
        "timestamp": "2025-12-10T18:57:00.326403+00:00",
        "meta_object_name": "COSMOS 2500 (755)",
        "meta_object_id": "2014-032A",
        "meta_epoch": "2025-12-09T11:02:48.490944",
        "meta_mean_motion": 2.13105796,
        "meta_eccentricity": 0.000831,
        "meta_inclination": 65.3451,
        "meta_ra_of_asc_node": 320.1442,
        "meta_arg_of_pericenter": 219.1348,
        "meta_mean_anomaly": 140.802,
        "meta_ephemeris_type": 0,
        "meta_classification_type": "U",
        "meta_norad_cat_id": 40001,
        "meta_element_set_no": 999,
        "meta_rev_at_epoch": 8941,
        "meta_bstar": 0,
        "meta_mean_motion_dot": -4.9e-07,
        "meta_mean_motion_ddot": 0,
        "tle_line1": "1 40001U 14032A   25343.46028346 -.00000049  00000+0  00000+0 0  9997",
        "tle_line2": "2 40001  65.3451 320.1442 0008310 219.1348 140.8020  2.13105796 89418"
      },
      "geometry": {
        "type": "Point",
        "coordinates": [
          -75.928236309515,
          -52.01370545459712
        ]
      }
    },
    {
      "type": "Feature",
      "properties": {
        "norad_id": 40315,
        "name": "COSMOS 2501 (702K)",
        "group": "glo-ops",
        "lat": 61.80164383360044,
        "lon": -50.91012732351712,
        "alt_km": 19135.78375222563,
        "timestamp": "2025-12-10T18:57:00.326415+00:00",
        "meta_object_name": "COSMOS 2501 (702K)",
        "meta_object_id": "2014-075A",
        "meta_epoch": "2025-12-07T20:13:51.362112",
        "meta_mean_motion": 2.13101338,
        "meta_eccentricity": 0.00201356,
        "meta_inclination": 63.6139,
        "meta_ra_of_asc_node": 196.9947,
        "meta_arg_of_pericenter": 204.4913,
        "meta_mean_anomaly": 155.4908,
        "meta_ephemeris_type": 0,
        "meta_classification_type": "U",
        "meta_norad_cat_id": 40315,
        "meta_element_set_no": 999,
        "meta_rev_at_epoch": 8577,
        "meta_bstar": 0,
        "meta_mean_motion_dot": 5.4e-07,
        "meta_mean_motion_ddot": 0,
        "tle_line1": "1 40315U 14075A   25341.84295558  .00000054  00000+0  00000+0 0  9998",
        "tle_line2": "2 40315  63.6139 196.9947 0020135 204.4913 155.4908  2.13101338 85773"
      },
      "geometry": {
        "type": "Point",
        "coordinates": [
          -50.91012732351712,
          61.80164383360044
        ]
      }
    }
  ]
}